{
  "type": "FeatureCollection",
  "features": [
    {
      "type": "Feature",
      "properties": {
        "norad_id": 34765,
        "name": "IRIDIUM 33 DEB",
        "group": "iridium-33-debris",
        "lat": 80.26491360578119,
        "lon": 52.72016701699029,
        "alt_km": 754.3621706037975,
        "timestamp": "2025-12-17T07:00:47.293342+00:00",
        "meta_object_name": "IRIDIUM 33 DEB",
        "meta_object_id": "1997-051LJ",
        "meta_epoch": "2025-12-15T13:40:10.093728",
        "meta_mean_motion": 14.40472042,
        "meta_eccentricity": 0.00157365,
        "meta_inclination": 86.3391,
        "meta_ra_of_asc_node": 31.5475,
        "meta_arg_of_pericenter": 201.7387,
        "meta_mean_anomaly": 311.9184,
        "meta_ephemeris_type": 0,
        "meta_classification_type": "U",
        "meta_norad_cat_id": 34765,
        "meta_element_set_no": 999,
        "meta_rev_at_epoch": 87654,
        "meta_bstar": 0.00038671785,
        "meta_mean_motion_dot": 1.25e-05,
        "meta_mean_motion_ddot": 0,
        "tle_line1": "1 34765U 97051LJ  25349.56956127  .00001250  00000+0  38672-3 0  9997",
        "tle_line2": "2 34765  86.3391  31.5475 0015736 201.7387 311.9184 14.40472042876547"
      },
      "geometry": {
        "type": "Point",
        "coordinates": [
          52.72016701699029,
          80.26491360578119
        ]
      }
    },
    {
      "type": "Feature",
      "properties": {
        "norad_id": 34833,
        "name": "IRIDIUM 33 DEB",
        "group": "iridium-33-debris",
        "lat": 21.399619429027076,
        "lon": 50.448665056852164,
        "alt_km": 710.6273307005167,
        "timestamp": "2025-12-17T07:00:47.293353+00:00",
        "meta_object_name": "IRIDIUM 33 DEB",
        "meta_object_id": "1997-051MH",
        "meta_epoch": "2025-12-15T10:20:22.808256",
        "meta_mean_motion": 14.52396502,
        "meta_eccentricity": 0.00217393,
        "meta_inclination": 86.3936,
        "meta_ra_of_asc_node": 49.8343,
        "meta_arg_of_pericenter": 90.4638,
        "meta_mean_anomaly": 284.9984,
        "meta_ephemeris_type": 0,
        "meta_classification_type": "U",
        "meta_norad_cat_id": 34833,
        "meta_element_set_no": 999,
        "meta_rev_at_epoch": 87754,
        "meta_bstar": 0.00054738094,
        "meta_mean_motion_dot": 2.256e-05,
        "meta_mean_motion_ddot": 0,
        "tle_line1": "1 34833U 97051MH  25349.43081954  .00002256  00000+0  54738-3 0  9994",
        "tle_line2": "2 34833  86.3936  49.8343 0021739  90.4638 284.9984 14.52396502877543"
      },
      "geometry": {
        "type": "Point",
        "coordinates": [
          50.448665056852164,
          21.399619429027076
        ]
      }
    },
    {
      "type": "Feature",
      "properties": {
        "norad_id": 34870,
        "name": "IRIDIUM 33 DEB",
        "group": "iridium-33-debris",
        "lat": 27.72236647639916,
        "lon": -46.057640760628935,
        "alt_km": 648.0116318870669,
        "timestamp": "2025-12-17T07:00:47.293363+00:00",
        "meta_object_name": "IRIDIUM 33 DEB",
        "meta_object_id": "1997-051MQ",
        "meta_epoch": "2025-12-15T20:52:07.322880",
        "meta_mean_motion": 14.7649675,
        "meta_eccentricity": 0.00166647,
        "meta_inclination": 86.3098,
        "meta_ra_of_asc_node": 312.6504,
        "meta_arg_of_pericenter": 171.0618,
        "meta_mean_anomaly": 219.7465,
        "meta_ephemeris_type": 0,
        "meta_classification_type": "U",
        "meta_norad_cat_id": 34870,
        "meta_element_set_no": 999,
        "meta_rev_at_epoch": 88957,
        "meta_bstar": 0.0009319058,
        "meta_mean_motion_dot": 6.529e-05,
        "meta_mean_motion_ddot": 0,
        "tle_line1": "1 34870U 97051MQ  25349.86952920  .00006529  00000+0  93191-3 0  9995",
        "tle_line2": "2 34870  86.3098 312.6504 0016664 171.0618 219.7465 14.76496750889576"
      },
      "geometry": {
        "type": "Point",
        "coordinates": [
          -46.057640760628935,
          27.72236647639916
        ]
      }
    },
    {
      "type": "Feature",
      "properties": {
        "norad_id": 34896,
        "name": "IRIDIUM 33 DEB",
        "group": "iridium-33-debris",
        "lat": 62.11201441126504,
        "lon": -28.387506182497603,
        "alt_km": 679.311979760364,
        "timestamp": "2025-12-17T07:00:47.293374+00:00",
        "meta_object_name": "IRIDIUM 33 DEB",
        "meta_object_id": "1997-051MY",
        "meta_epoch": "2025-12-16T04:34:33.251232",
        "meta_mean_motion": 14.66314014,
        "meta_eccentricity": 0.00246953,
        "meta_inclination": 86.3284,
        "meta_ra_of_asc_node": 325.1372,
        "meta_arg_of_pericenter": 201.8046,
        "meta_mean_anomaly": 169.754,
        "meta_ephemeris_type": 0,
        "meta_classification_type": "U",
        "meta_norad_cat_id": 34896,
        "meta_element_set_no": 999,
        "meta_rev_at_epoch": 87670,
        "meta_bstar": 0.00064317524,
        "meta_mean_motion_dot": 3.586e-05,
        "meta_mean_motion_ddot": 0,
        "tle_line1": "1 34896U 97051MY  25350.19066263  .00003586  00000+0  64318-3 0  9996",
        "tle_line2": "2 34896  86.3284 325.1372 0024695 201.8046 169.7540 14.66314014876703"
      },
      "geometry": {
        "type": "Point",
        "coordinates": [
          -28.387506182497603,
          62.11201441126504
        ]
      }
    },
    {
      "type": "Feature",
      "properties": {
        "norad_id": 34926,
        "name": "IRIDIUM 33 DEB",
        "group": "iridium-33-debris",
        "lat": -42.86298129413556,
        "lon": 2.563710216181146,
        "alt_km": 676.5479363492022,
        "timestamp": "2025-12-17T07:00:47.293385+00:00",
        "meta_object_name": "IRIDIUM 33 DEB",
        "meta_object_id": "1997-051NF",
        "meta_epoch": "2025-12-16T12:07:53.948928",
        "meta_mean_motion": 14.54592592,
        "meta_eccentricity": 0.00747935,
        "meta_inclination": 86.1325,
        "meta_ra_of_asc_node": 6.5279,
        "meta_arg_of_pericenter": 279.7661,
        "meta_mean_anomaly": 239.6719,
        "meta_ephemeris_type": 0,
        "meta_classification_type": "U",
        "meta_norad_cat_id": 34926,
        "meta_element_set_no": 999,
        "meta_rev_at_epoch": 86511,
        "meta_bstar": 0.0039679953,
        "meta_mean_motion_dot": 0.00017628,
        "meta_mean_motion_ddot": 0,
        "tle_line1": "1 34926U 97051NF  25350.50548552  .00017628  00000+0  39680-2 0  9996",
        "tle_line2": "2 34926  86.1325   6.5279 0074793 279.7661 239.6719 14.54592592865112"
      },
      "geometry": {
        "type": "Point",
        "coordinates": [
          2.563710216181146,
          -42.86298129413556
        ]
      }
    },
    {
      "type": "Feature",
      "properties": {
        "norad_id": 34985,
        "name": "IRIDIUM 33 DEB",
        "group": "iridium-33-debris",
        "lat": -56.79073653898079,
        "lon": -119.49681514229249,
        "alt_km": 746.294387389732,
        "timestamp": "2025-12-17T07:00:47.293396+00:00",
        "meta_object_name": "IRIDIUM 33 DEB",
        "meta_object_id": "1997-051NR",
        "meta_epoch": "2025-12-15T23:04:55.240608",
        "meta_mean_motion": 14.42024534,
        "meta_eccentricity": 0.00210591,
        "meta_inclination": 86.3698,
        "meta_ra_of_asc_node": 55.5052,
        "meta_arg_of_pericenter": 208.7794,
        "meta_mean_anomaly": 325.5524,
        "meta_ephemeris_type": 0,
        "meta_classification_type": "U",
        "meta_norad_cat_id": 34985,
        "meta_element_set_no": 999,
        "meta_rev_at_epoch": 87221,
        "meta_bstar": 0.00049841253,
        "meta_mean_motion_dot": 1.659e-05,
        "meta_mean_motion_ddot": 0,
        "tle_line1": "1 34985U 97051NR  25349.96175047  .00001659  00000+0  49841-3 0  9992",
        "tle_line2": "2 34985  86.3698  55.5052 0021059 208.7794 325.5524 14.42024534872212"
      },
      "geometry": {
        "type": "Point",
        "coordinates": [
          -119.49681514229249,
          -56.79073653898079
        ]
      }
    },
    {
      "type": "Feature",
      "properties": {
        "norad_id": 35051,
        "name": "IRIDIUM 33 DEB",
        "group": "iridium-33-debris",
        "lat": -80.26192103959657,
        "lon": -151.12395940274956,
        "alt_km": 748.3726774207271,
        "timestamp": "2025-12-17T07:00:47.293407+00:00",
        "meta_object_name": "IRIDIUM 33 DEB",
        "meta_object_id": "1997-051NX",
        "meta_epoch": "2025-12-16T11:33:47.254752",
        "meta_mean_motion": 14.4761513,
        "meta_eccentricity": 0.00105455,
        "meta_inclination": 86.3243,
        "meta_ra_of_asc_node": 7.2312,
        "meta_arg_of_pericenter": 80.6225,
        "meta_mean_anomaly": 279.617,
        "meta_ephemeris_type": 0,
        "meta_classification_type": "U",
        "meta_norad_cat_id": 35051,
        "meta_element_set_no": 999,
        "meta_rev_at_epoch": 87050,
        "meta_bstar": 0.0004582656,
        "meta_mean_motion_dot": 1.708e-05,
        "meta_mean_motion_ddot": 0,
        "tle_line1": "1 35051U 97051NX  25350.48179693  .00001708  00000+0  45827-3 0  9992",
        "tle_line2": "2 35051  86.3243   7.2312 0010545  80.6225 279.6170 14.47615130870509"
      },
      "geometry": {
        "type": "Point",
        "coordinates": [
          -151.12395940274956,
          -80.26192103959657
        ]
      }
    }
  ]
}